[{"OBJECT_NAME":"ONEWEB-0288","OBJECT_ID":"2021-075D","EPOCH":"2026-03-11T06:47:07.747584","MEAN_MOTION":13.12442412,"ECCENTRICITY":0.00018716,"INCLINATION":87.9004,"RA_OF_ASC_NODE":10.0868,"ARG_OF_PERICENTER":76.5865,"MEAN_ANOMALY":283.5472,"EPHEMERIS_TYPE":0,"CLASSIFICATION_TYPE":"U","NORAD_CAT_ID":49078,"ELEMENT_SET_NO":999,"REV_AT_EPOCH":22234,"BSTAR":0.0013867475,"MEAN_MOTION_DOT":5.12e-6,"MEAN_MOTION_DDOT":0},{"OBJECT_NAME":"ONEWEB-0289","OBJECT_ID":"2021-075E","EPOCH":"2026-03-10T22:39:14.695776","MEAN_MOTION":13.17647782,"ECCENTRICITY":0.0002266,"INCLINATION":87.9159,"RA_OF_ASC_NODE":25.3869,"ARG_OF_PERICENTER":81.5831,"MEAN_ANOMALY":278.5557,"EPHEMERIS_TYPE":0,"CLASSIFICATION_TYPE":"U","NORAD_CAT_ID":49079,"ELEMENT_SET_NO":999,"REV_AT_EPOCH":22126,"BSTAR":0.00025541,"MEAN_MOTION_DOT":1.12e-6,"MEAN_MOTION_DDOT":0},{"OBJECT_NAME":"ONEWEB-0290","OBJECT_ID":"2021-075F","EPOCH":"2026-03-11T07:07:20.006112","MEAN_MOTION":13.17650043,"ECCENTRICITY":0.00023839,"INCLINATION":87.9161,"RA_OF_ASC_NODE":25.2852,"ARG_OF_PERICENTER":87.1945,"MEAN_ANOMALY":272.946,"EPHEMERIS_TYPE":0,"CLASSIFICATION_TYPE":"U","NORAD_CAT_ID":49080,"ELEMENT_SET_NO":999,"REV_AT_EPOCH":22072,"BSTAR":-2.3998782e-5,"MEAN_MOTION_DOT":4.0e-8,"MEAN_MOTION_DDOT":0},{"OBJECT_NAME":"ONEWEB-0291","OBJECT_ID":"2021-075G","EPOCH":"2026-03-11T06:45:27.279936","MEAN_MOTION":13.17648753,"ECCENTRICITY":0.00020611,"INCLINATION":87.9163,"RA_OF_ASC_NODE":25.2964,"ARG_OF_PERICENTER":71.1272,"MEAN_ANOMALY":289.0083,"EPHEMERIS_TYPE":0,"CLASSIFICATION_TYPE":"U","NORAD_CAT_ID":49081,"ELEMENT_SET_NO":999,"REV_AT_EPOCH":22071,"BSTAR":7.0110487e-5,"MEAN_MOTION_DOT":4.0e-7,"MEAN_MOTION_DDOT":0},{"OBJECT_NAME":"ONEWEB-0293","OBJECT_ID":"2021-075H","EPOCH":"2026-03-11T07:21:54.527904","MEAN_MOTION":13.17649123,"ECCENTRICITY":0.00019858,"INCLINATION":87.9153,"RA_OF_ASC_NODE":25.3027,"ARG_OF_PERICENTER":80.4522,"MEAN_ANOMALY":279.6834,"EPHEMERIS_TYPE":0,"CLASSIFICATION_TYPE":"U","NORAD_CAT_ID":49082,"ELEMENT_SET_NO":999,"REV_AT_EPOCH":22074,"BSTAR":0.00030164363,"MEAN_MOTION_DOT":1.3e-6,"MEAN_MOTION_DDOT":0},{"OBJECT_NAME":"ONEWEB-0294","OBJECT_ID":"2021-075J","EPOCH":"2026-03-11T05:07:06.356064","MEAN_MOTION":13.12440627,"ECCENTRICITY":0.00021361,"INCLINATION":87.9004,"RA_OF_ASC_NODE":10.1031,"ARG_OF_PERICENTER":80.3018,"MEAN_ANOMALY":279.8352,"EPHEMERIS_TYPE":0,"CLASSIFICATION_TYPE":"U","NORAD_CAT_ID":49083,"ELEMENT_SET_NO":999,"REV_AT_EPOCH":22172,"BSTAR":0.00067199332,"MEAN_MOTION_DOT":2.54e-6,"MEAN_MOTION_DDOT":0},{"OBJECT_NAME":"ONEWEB-0295","OBJECT_ID":"2021-075K","EPOCH":"2026-03-11T07:20:41.714304","MEAN_MOTION":13.17650235,"ECCENTRICITY":0.00019243,"INCLINATION":87.9152,"RA_OF_ASC_NODE":25.3072,"ARG_OF_PERICENTER":70.0514,"MEAN_ANOMALY":290.0825,"EPHEMERIS_TYPE":0,"CLASSIFICATION_TYPE":"U","NORAD_CAT_ID":49084,"ELEMENT_SET_NO":999,"REV_AT_EPOCH":22070,"BSTAR":0.00025601037,"MEAN_MOTION_DOT":1.12e-6,"MEAN_MOTION_DDOT":0},{"OBJECT_NAME":"ONEWEB-0296","OBJECT_ID":"2021-075L","EPOCH":"2026-03-11T06:27:36.208512","MEAN_MOTION":13.12444158,"ECCENTRICITY":0.00019674,"INCLINATION":87.9009,"RA_OF_ASC_NODE":10.0956,"ARG_OF_PERICENTER":69.0396,"MEAN_ANOMALY":291.0943,"EPHEMERIS_TYPE":0,"CLASSIFICATION_TYPE":"U","NORAD_CAT_ID":49085,"ELEMENT_SET_NO":999,"REV_AT_EPOCH":22173,"BSTAR":0.0010166247,"MEAN_MOTION_DOT":3.78e-6,"MEAN_MOTION_DDOT":0},{"OBJECT_NAME":"ONEWEB-0297","OBJECT_ID":"2021-075M","EPOCH":"2026-03-11T07:11:31.206336","MEAN_MOTION":13.12441495,"ECCENTRICITY":0.00017868,"INCLINATION":87.8994,"RA_OF_ASC_NODE":10.1141,"ARG_OF_PERICENTER":76.5348,"MEAN_ANOMALY":283.598,"EPHEMERIS_TYPE":0,"CLASSIFICATION_TYPE":"U","NORAD_CAT_ID":49086,"ELEMENT_SET_NO":999,"REV_AT_EPOCH":22234,"BSTAR":0.00023377033,"MEAN_MOTION_DOT":9.7e-7,"MEAN_MOTION_DDOT":0},{"OBJECT_NAME":"ONEWEB-0298","OBJECT_ID":"2021-075N","EPOCH":"2026-03-11T07:26:57.079104","MEAN_MOTION":13.17648172,"ECCENTRICITY":0.00016906,"INCLINATION":87.9152,"RA_OF_ASC_NODE":25.3033,"ARG_OF_PERICENTER":79.9099,"MEAN_ANOMALY":280.2223,"EPHEMERIS_TYPE":0,"CLASSIFICATION_TYPE":"U","NORAD_CAT_ID":49087,"ELEMENT_SET_NO":999,"REV_AT_EPOCH":22073,"BSTAR":0.00029607364,"MEAN_MOTION_DOT":1.28e-6,"MEAN_MOTION_DDOT":0},{"OBJECT_NAME":"ONEWEB-0299","OBJECT_ID":"2021-075P","EPOCH":"2026-03-11T07:29:10.766688","MEAN_MOTION":13.17647928,"ECCENTRICITY":0.00018024,"INCLINATION":87.9166,"RA_OF_ASC_NODE":25.2736,"ARG_OF_PERICENTER":76.247,"MEAN_ANOMALY":283.8862,"EPHEMERIS_TYPE":0,"CLASSIFICATION_TYPE":"U","NORAD_CAT_ID":49088,"ELEMENT_SET_NO":999,"REV_AT_EPOCH":22071,"BSTAR":0.00019626336,"MEAN_MOTION_DOT":8.9e-7,"MEAN_MOTION_DDOT":0},{"OBJECT_NAME":"ONEWEB-0300","OBJECT_ID":"2021-075Q","EPOCH":"2026-03-11T05:10:45.354144","MEAN_MOTION":13.1244273,"ECCENTRICITY":0.00014187,"INCLINATION":87.9006,"RA_OF_ASC_NODE":10.0987,"ARG_OF_PERICENTER":82.6452,"MEAN_ANOMALY":277.4838,"EPHEMERIS_TYPE":0,"CLASSIFICATION_TYPE":"U","NORAD_CAT_ID":49089,"ELEMENT_SET_NO":999,"REV_AT_EPOCH":22235,"BSTAR":0.00072883571,"MEAN_MOTION_DOT":2.75e-6,"MEAN_MOTION_DDOT":0},{"OBJECT_NAME":"ONEWEB-0301","OBJECT_ID":"2021-075R","EPOCH":"2026-03-11T06:37:20.175744","MEAN_MOTION":13.12445447,"ECCENTRICITY":0.00014319,"INCLINATION":87.9004,"RA_OF_ASC_NODE":10.0876,"ARG_OF_PERICENTER":85.0287,"MEAN_ANOMALY":275.1005,"EPHEMERIS_TYPE":0,"CLASSIFICATION_TYPE":"U","NORAD_CAT_ID":49090,"ELEMENT_SET_NO":999,"REV_AT_EPOCH":22172,"BSTAR":0.001328559,"MEAN_MOTION_DOT":4.91e-6,"MEAN_MOTION_DDOT":0},{"OBJECT_NAME":"ONEWEB-0302","OBJECT_ID":"2021-075S","EPOCH":"2026-03-11T06:17:50.494272","MEAN_MOTION":13.12444129,"ECCENTRICITY":0.00021246,"INCLINATION":87.9007,"RA_OF_ASC_NODE":10.0992,"ARG_OF_PERICENTER":75.0469,"MEAN_ANOMALY":285.0894,"EPHEMERIS_TYPE":0,"CLASSIFICATION_TYPE":"U","NORAD_CAT_ID":49091,"ELEMENT_SET_NO":999,"REV_AT_EPOCH":22170,"BSTAR":0.00041925695,"MEAN_MOTION_DOT":1.64e-6,"MEAN_MOTION_DDOT":0},{"OBJECT_NAME":"ONEWEB-0304","OBJECT_ID":"2021-075T","EPOCH":"2026-03-11T06:52:45.128352","MEAN_MOTION":13.17650259,"ECCENTRICITY":0.00018736,"INCLINATION":87.916,"RA_OF_ASC_NODE":25.3088,"ARG_OF_PERICENTER":76.0564,"MEAN_ANOMALY":284.0776,"EPHEMERIS_TYPE":0,"CLASSIFICATION_TYPE":"U","NORAD_CAT_ID":49092,"ELEMENT_SET_NO":999,"REV_AT_EPOCH":22068,"BSTAR":0.00018215701,"MEAN_MOTION_DOT":8.4e-7,"MEAN_MOTION_DDOT":0},{"OBJECT_NAME":"ONEWEB-0305","OBJECT_ID":"2021-075U","EPOCH":"2026-03-11T06:43:02.191872","MEAN_MOTION":13.17649826,"ECCENTRICITY":0.00018273,"INCLINATION":87.9161,"RA_OF_ASC_NODE":25.2886,"ARG_OF_PERICENTER":67.6529,"MEAN_ANOMALY":292.4796,"EPHEMERIS_TYPE":0,"CLASSIFICATION_TYPE":"U","NORAD_CAT_ID":49093,"ELEMENT_SET_NO":999,"REV_AT_EPOCH":22071,"BSTAR":0.00023712127,"MEAN_MOTION_DOT":1.05e-6,"MEAN_MOTION_DDOT":0},{"OBJECT_NAME":"ONEWEB-0308","OBJECT_ID":"2021-075V","EPOCH":"2026-03-11T06:08:04.521696","MEAN_MOTION":13.12444066,"ECCENTRICITY":0.00018092,"INCLINATION":87.9005,"RA_OF_ASC_NODE":10.0932,"ARG_OF_PERICENTER":79.2288,"MEAN_ANOMALY":280.9044,"EPHEMERIS_TYPE":0,"CLASSIFICATION_TYPE":"U","NORAD_CAT_ID":49094,"ELEMENT_SET_NO":999,"REV_AT_EPOCH":22171,"BSTAR":-0.00021928663,"MEAN_MOTION_DOT":-6.6e-7,"MEAN_MOTION_DDOT":0},{"OBJECT_NAME":"ONEWEB-0309","OBJECT_ID":"2021-075W","EPOCH":"2026-03-11T06:47:51.839232","MEAN_MOTION":13.17646026,"ECCENTRICITY":0.00022498,"INCLINATION":87.9163,"RA_OF_ASC_NODE":25.3025,"ARG_OF_PERICENTER":77.4853,"MEAN_ANOMALY":282.653,"EPHEMERIS_TYPE":0,"CLASSIFICATION_TYPE":"U","NORAD_CAT_ID":49095,"ELEMENT_SET_NO":999,"REV_AT_EPOCH":22068,"BSTAR":0.00021370922,"MEAN_MOTION_DOT":9.6e-7,"MEAN_MOTION_DDOT":0},{"OBJECT_NAME":"ONEWEB-0310","OBJECT_ID":"2021-075X","EPOCH":"2026-03-11T06:30:01.404576","MEAN_MOTION":13.1244575,"ECCENTRICITY":0.00018131,"INCLINATION":87.9001,"RA_OF_ASC_NODE":10.1204,"ARG_OF_PERICENTER":80.1799,"MEAN_ANOMALY":279.9535,"EPHEMERIS_TYPE":0,"CLASSIFICATION_TYPE":"U","NORAD_CAT_ID":49096,"ELEMENT_SET_NO":999,"REV_AT_EPOCH":22234,"BSTAR":0.0011691509,"MEAN_MOTION_DOT":4.33e-6,"MEAN_MOTION_DDOT":0},{"OBJECT_NAME":"ONEWEB-0311","OBJECT_ID":"2021-075Y","EPOCH":"2026-03-11T06:57:37.031616","MEAN_MOTION":13.176521,"ECCENTRICITY":0.00016551,"INCLINATION":87.9162,"RA_OF_ASC_NODE":25.296,"ARG_OF_PERICENTER":66.6568,"MEAN_ANOMALY":293.4738,"EPHEMERIS_TYPE":0,"CLASSIFICATION_TYPE":"U","NORAD_CAT_ID":49097,"ELEMENT_SET_NO":999,"REV_AT_EPOCH":22073,"BSTAR":9.706011e-5,"MEAN_MOTION_DOT":5.1e-7,"MEAN_MOTION_DDOT":0},{"OBJECT_NAME":"ONEWEB-0312","OBJECT_ID":"2021-075Z","EPOCH":"2026-03-11T07:19:28.434144","MEAN_MOTION":13.17648235,"ECCENTRICITY":0.0002015,"INCLINATION":87.9155,"RA_OF_ASC_NODE":25.3108,"ARG_OF_PERICENTER":71.6393,"MEAN_ANOMALY":288.4958,"EPHEMERIS_TYPE":0,"CLASSIFICATION_TYPE":"U","NORAD_CAT_ID":49098,"ELEMENT_SET_NO":999,"REV_AT_EPOCH":22071,"BSTAR":0.0002658125,"MEAN_MOTION_DOT":1.16e-6,"MEAN_MOTION_DDOT":0},{"OBJECT_NAME":"ONEWEB-0313","OBJECT_ID":"2021-075AA","EPOCH":"2026-03-11T07:26:34.697184","MEAN_MOTION":13.1764947,"ECCENTRICITY":0.00018113,"INCLINATION":87.9154,"RA_OF_ASC_NODE":25.3164,"ARG_OF_PERICENTER":76.8057,"MEAN_ANOMALY":283.3276,"EPHEMERIS_TYPE":0,"CLASSIFICATION_TYPE":"U","NORAD_CAT_ID":49099,"ELEMENT_SET_NO":999,"REV_AT_EPOCH":22070,"BSTAR":0.00017949366,"MEAN_MOTION_DOT":8.3e-7,"MEAN_MOTION_DDOT":0},{"OBJECT_NAME":"ONEWEB-0314","OBJECT_ID":"2021-075AB","EPOCH":"2026-03-11T06:38:09.850560","MEAN_MOTION":13.1764922,"ECCENTRICITY":0.00020084,"INCLINATION":87.9163,"RA_OF_ASC_NODE":25.286,"ARG_OF_PERICENTER":69.6977,"MEAN_ANOMALY":290.437,"EPHEMERIS_TYPE":0,"CLASSIFICATION_TYPE":"U","NORAD_CAT_ID":49100,"ELEMENT_SET_NO":999,"REV_AT_EPOCH":22067,"BSTAR":5.603569e-5,"MEAN_MOTION_DOT":3.5e-7,"MEAN_MOTION_DDOT":0}]
